[{"OBJECT_NAME":"STARLINK-30099","OBJECT_ID":"2023-056U","EPOCH":"2026-03-09T22:00:01.999584","MEAN_MOTION":15.25563741,"ECCENTRICITY":0.00018348,"INCLINATION":43.0032,"RA_OF_ASC_NODE":207.2616,"ARG_OF_PERICENTER":279.7614,"MEAN_ANOMALY":238.5767,"EPHEMERIS_TYPE":0,"CLASSIFICATION_TYPE":"U","NORAD_CAT_ID":56304,"ELEMENT_SET_NO":999,"REV_AT_EPOCH":572,"BSTAR":0.027833356,"MEAN_MOTION_DOT":0.00777937,"MEAN_MOTION_DDOT":0},{"OBJECT_NAME":"GLOBAL-33","OBJECT_ID":"2025-267A","EPOCH":"2026-03-09T21:54:41.233536","MEAN_MOTION":15.34150159,"ECCENTRICITY":0.00080919,"INCLINATION":42.0191,"RA_OF_ASC_NODE":272.8342,"ARG_OF_PERICENTER":299.7504,"MEAN_ANOMALY":60.2529,"EPHEMERIS_TYPE":0,"CLASSIFICATION_TYPE":"U","NORAD_CAT_ID":66554,"ELEMENT_SET_NO":999,"REV_AT_EPOCH":1678,"BSTAR":0.00044586475,"MEAN_MOTION_DOT":0.00014847,"MEAN_MOTION_DDOT":0}]
